ONEWEB-0094             
1 45450U 20020AC  26106.46683421  .00000077  00000+0  16611-3 0  9992
2 45450  87.9199  18.1037 0002036  79.0242 281.1119 13.17651063298182
ONEWEB-0087             
1 45451U 20020AD  26106.76496736 -.00000089  00000+0 -28728-3 0  9994
2 45451  87.8943  33.2428 0001979  83.6865 276.4488 13.11416525294535
ONEWEB-0082             
1 45452U 20020AE  26106.53281443 -.00000326  00000+0 -95560-3 0  9999
2 45452  87.8925  33.3077 0001535  81.3584 278.7718 13.11417084294596
ONEWEB-0050             
1 45453U 20020AF  26106.36568846  .00001526  00000+0  15550-3 0  9998
2 45453  88.9261 241.6076 0003921 154.3192 205.8233 14.90155517331179
ONEWEB-0034             
1 45454U 20020AG  26106.55400476  .00000497  00000+0  13674-2 0  9994
2 45454  87.8925  33.3092 0001870  78.3939 281.7398 13.11418561294518
ONEWEB-0060             
1 45455U 20020AH  26106.52517626 -.00000545  00000+0 -15731-2 0  9990
2 45455  87.8925  33.3241 0002723  91.4145 268.7295 13.11417764294467
ONEWEB-0086             
1 45456U 20020AJ  26106.50399218 -.00000340  00000+0 -99499-3 0  9991
2 45456  87.8931  33.3188 0002582  76.0644 284.0771 13.11414991294527
ONEWEB-0088             
1 45457U 20020AK  26106.25304669 -.00009417  00000+0 -26615-1 0  9992
2 45457  87.8936  33.3359 0001788  96.5415 263.5917 13.11463052294428
ONEWEB-0102             
1 47258U 20100A   26106.45809713  .00000206  00000+0  53724-3 0  9992
2 47258  87.9000   2.9420 0002062  77.2151 282.9208 13.12441737256638
ONEWEB-0109             
1 47259U 20100B   26106.69528062  .00000255  00000+0  67260-3 0  9998
2 47259  87.9007   2.8727 0001695  74.5894 285.5422 13.12443648256494
ONEWEB-0110             
1 47260U 20100C   26106.41743809 -.00000167  00000+0 -49904-3 0  9997
2 47260  87.9012   2.9123 0002029  78.9455 281.1901 13.12441224256623
ONEWEB-0111             
1 47261U 20100D   26106.44792838 -.00000065  00000+0 -21582-3 0  9996
2 47261  87.9010   2.9249 0001892  82.2495 277.8848 13.12442614256468
ONEWEB-0114             
1 47262U 20100E   26106.70713512  .00000339  00000+0  90646-3 0  9997
2 47262  87.9014   2.8698 0001572  72.7133 287.4168 13.12441194256451
ONEWEB-0117             
1 47263U 20100F   26106.69866600  .00000445  00000+0  12016-2 0  9995
2 47263  87.9006   2.8645 0001816  78.3982 281.7350 13.12441822256469
ONEWEB-0118             
1 47264U 20100G   26106.42759713 -.00000521  00000+0 -14834-2 0  9990
2 47264  87.9014   2.9203 0001550  78.4111 281.7191 13.12440421256625
ONEWEB-0119             
1 47265U 20100H   26106.60548903  .00000021  00000+0  24391-4 0  9992
2 47265  87.8992   2.9078 0001816  78.0183 282.1149 13.12442454256626
