[{"OBJECT_NAME":"ONEWEB-0094","OBJECT_ID":"2020-020AC","EPOCH":"2026-04-16T11:12:14.475744","MEAN_MOTION":13.17651063,"ECCENTRICITY":0.0002036,"INCLINATION":87.9199,"RA_OF_ASC_NODE":18.1037,"ARG_OF_PERICENTER":79.0242,"MEAN_ANOMALY":281.1119,"EPHEMERIS_TYPE":0,"CLASSIFICATION_TYPE":"U","NORAD_CAT_ID":45450,"ELEMENT_SET_NO":999,"REV_AT_EPOCH":29818,"BSTAR":0.00016611000000000002,"MEAN_MOTION_DOT":7.7e-07,"MEAN_MOTION_DDOT":0.0},{"OBJECT_NAME":"ONEWEB-0087","OBJECT_ID":"2020-020AD","EPOCH":"2026-04-16T18:21:33.179904","MEAN_MOTION":13.11416525,"ECCENTRICITY":0.0001979,"INCLINATION":87.8943,"RA_OF_ASC_NODE":33.2428,"ARG_OF_PERICENTER":83.6865,"MEAN_ANOMALY":276.4488,"EPHEMERIS_TYPE":0,"CLASSIFICATION_TYPE":"U","NORAD_CAT_ID":45451,"ELEMENT_SET_NO":999,"REV_AT_EPOCH":29453,"BSTAR":-0.00028728,"MEAN_MOTION_DOT":-8.9e-07,"MEAN_MOTION_DDOT":0.0},{"OBJECT_NAME":"ONEWEB-0082","OBJECT_ID":"2020-020AE","EPOCH":"2026-04-16T12:47:15.166752","MEAN_MOTION":13.11417084,"ECCENTRICITY":0.0001535,"INCLINATION":87.8925,"RA_OF_ASC_NODE":33.3077,"ARG_OF_PERICENTER":81.3584,"MEAN_ANOMALY":278.7718,"EPHEMERIS_TYPE":0,"CLASSIFICATION_TYPE":"U","NORAD_CAT_ID":45452,"ELEMENT_SET_NO":999,"REV_AT_EPOCH":29459,"BSTAR":-0.0009556,"MEAN_MOTION_DOT":-3.26e-06,"MEAN_MOTION_DDOT":0.0},{"OBJECT_NAME":"ONEWEB-0050","OBJECT_ID":"2020-020AF","EPOCH":"2026-04-16T08:46:35.482944","MEAN_MOTION":14.90155517,"ECCENTRICITY":0.0003921,"INCLINATION":88.9261,"RA_OF_ASC_NODE":241.6076,"ARG_OF_PERICENTER":154.3192,"MEAN_ANOMALY":205.8233,"EPHEMERIS_TYPE":0,"CLASSIFICATION_TYPE":"U","NORAD_CAT_ID":45453,"ELEMENT_SET_NO":999,"REV_AT_EPOCH":33117,"BSTAR":0.0001555,"MEAN_MOTION_DOT":1.526e-05,"MEAN_MOTION_DDOT":0.0},{"OBJECT_NAME":"ONEWEB-0034","OBJECT_ID":"2020-020AG","EPOCH":"2026-04-16T13:17:46.011264","MEAN_MOTION":13.11418561,"ECCENTRICITY":0.000187,"INCLINATION":87.8925,"RA_OF_ASC_NODE":33.3092,"ARG_OF_PERICENTER":78.3939,"MEAN_ANOMALY":281.7398,"EPHEMERIS_TYPE":0,"CLASSIFICATION_TYPE":"U","NORAD_CAT_ID":45454,"ELEMENT_SET_NO":999,"REV_AT_EPOCH":29451,"BSTAR":0.0013674,"MEAN_MOTION_DOT":4.97e-06,"MEAN_MOTION_DDOT":0.0},{"OBJECT_NAME":"ONEWEB-0060","OBJECT_ID":"2020-020AH","EPOCH":"2026-04-16T12:36:15.228864","MEAN_MOTION":13.11417764,"ECCENTRICITY":0.0002723,"INCLINATION":87.8925,"RA_OF_ASC_NODE":33.3241,"ARG_OF_PERICENTER":91.4145,"MEAN_ANOMALY":268.7295,"EPHEMERIS_TYPE":0,"CLASSIFICATION_TYPE":"U","NORAD_CAT_ID":45455,"ELEMENT_SET_NO":999,"REV_AT_EPOCH":29446,"BSTAR":-0.0015731,"MEAN_MOTION_DOT":-5.45e-06,"MEAN_MOTION_DDOT":0.0},{"OBJECT_NAME":"ONEWEB-0086","OBJECT_ID":"2020-020AJ","EPOCH":"2026-04-16T12:05:44.924352","MEAN_MOTION":13.11414991,"ECCENTRICITY":0.0002582,"INCLINATION":87.8931,"RA_OF_ASC_NODE":33.3188,"ARG_OF_PERICENTER":76.0644,"MEAN_ANOMALY":284.0771,"EPHEMERIS_TYPE":0,"CLASSIFICATION_TYPE":"U","NORAD_CAT_ID":45456,"ELEMENT_SET_NO":999,"REV_AT_EPOCH":29452,"BSTAR":-0.00099499,"MEAN_MOTION_DOT":-3.4e-06,"MEAN_MOTION_DDOT":0.0},{"OBJECT_NAME":"ONEWEB-0088","OBJECT_ID":"2020-020AK","EPOCH":"2026-04-16T06:04:23.234016","MEAN_MOTION":13.11463052,"ECCENTRICITY":0.0001788,"INCLINATION":87.8936,"RA_OF_ASC_NODE":33.3359,"ARG_OF_PERICENTER":96.5415,"MEAN_ANOMALY":263.5917,"EPHEMERIS_TYPE":0,"CLASSIFICATION_TYPE":"U","NORAD_CAT_ID":45457,"ELEMENT_SET_NO":999,"REV_AT_EPOCH":29442,"BSTAR":-0.026615,"MEAN_MOTION_DOT":-9.417e-05,"MEAN_MOTION_DDOT":0.0},{"OBJECT_NAME":"ONEWEB-0102","OBJECT_ID":"2020-100A","EPOCH":"2026-04-16T10:59:39.592032","MEAN_MOTION":13.12441737,"ECCENTRICITY":0.0002062,"INCLINATION":87.9,"RA_OF_ASC_NODE":2.942,"ARG_OF_PERICENTER":77.2151,"MEAN_ANOMALY":282.9208,"EPHEMERIS_TYPE":0,"CLASSIFICATION_TYPE":"U","NORAD_CAT_ID":47258,"ELEMENT_SET_NO":999,"REV_AT_EPOCH":25663,"BSTAR":0.00053724,"MEAN_MOTION_DOT":2.06e-06,"MEAN_MOTION_DDOT":0.0},{"OBJECT_NAME":"ONEWEB-0109","OBJECT_ID":"2020-100B","EPOCH":"2026-04-16T16:41:12.245568","MEAN_MOTION":13.12443648,"ECCENTRICITY":0.0001695,"INCLINATION":87.9007,"RA_OF_ASC_NODE":2.8727,"ARG_OF_PERICENTER":74.5894,"MEAN_ANOMALY":285.5422,"EPHEMERIS_TYPE":0,"CLASSIFICATION_TYPE":"U","NORAD_CAT_ID":47259,"ELEMENT_SET_NO":999,"REV_AT_EPOCH":25649,"BSTAR":0.0006726,"MEAN_MOTION_DOT":2.55e-06,"MEAN_MOTION_DDOT":0.0},{"OBJECT_NAME":"ONEWEB-0110","OBJECT_ID":"2020-100C","EPOCH":"2026-04-16T10:01:06.650976","MEAN_MOTION":13.12441224,"ECCENTRICITY":0.0002029,"INCLINATION":87.9012,"RA_OF_ASC_NODE":2.9123,"ARG_OF_PERICENTER":78.9455,"MEAN_ANOMALY":281.1901,"EPHEMERIS_TYPE":0,"CLASSIFICATION_TYPE":"U","NORAD_CAT_ID":47260,"ELEMENT_SET_NO":999,"REV_AT_EPOCH":25662,"BSTAR":-0.00049904,"MEAN_MOTION_DOT":-1.67e-06,"MEAN_MOTION_DDOT":0.0},{"OBJECT_NAME":"ONEWEB-0111","OBJECT_ID":"2020-100D","EPOCH":"2026-04-16T10:45:01.012032","MEAN_MOTION":13.12442614,"ECCENTRICITY":0.0001892,"INCLINATION":87.901,"RA_OF_ASC_NODE":2.9249,"ARG_OF_PERICENTER":82.2495,"MEAN_ANOMALY":277.8848,"EPHEMERIS_TYPE":0,"CLASSIFICATION_TYPE":"U","NORAD_CAT_ID":47261,"ELEMENT_SET_NO":999,"REV_AT_EPOCH":25646,"BSTAR":-0.00021582,"MEAN_MOTION_DOT":-6.5e-07,"MEAN_MOTION_DDOT":0.0},{"OBJECT_NAME":"ONEWEB-0114","OBJECT_ID":"2020-100E","EPOCH":"2026-04-16T16:58:16.474368","MEAN_MOTION":13.12441194,"ECCENTRICITY":0.0001572,"INCLINATION":87.9014,"RA_OF_ASC_NODE":2.8698,"ARG_OF_PERICENTER":72.7133,"MEAN_ANOMALY":287.4168,"EPHEMERIS_TYPE":0,"CLASSIFICATION_TYPE":"U","NORAD_CAT_ID":47262,"ELEMENT_SET_NO":999,"REV_AT_EPOCH":25645,"BSTAR":0.0009064600000000001,"MEAN_MOTION_DOT":3.39e-06,"MEAN_MOTION_DDOT":0.0},{"OBJECT_NAME":"ONEWEB-0117","OBJECT_ID":"2020-100F","EPOCH":"2026-04-16T16:46:04.742400","MEAN_MOTION":13.12441822,"ECCENTRICITY":0.0001816,"INCLINATION":87.9006,"RA_OF_ASC_NODE":2.8645,"ARG_OF_PERICENTER":78.3982,"MEAN_ANOMALY":281.735,"EPHEMERIS_TYPE":0,"CLASSIFICATION_TYPE":"U","NORAD_CAT_ID":47263,"ELEMENT_SET_NO":999,"REV_AT_EPOCH":25646,"BSTAR":0.0012016000000000002,"MEAN_MOTION_DOT":4.45e-06,"MEAN_MOTION_DDOT":0.0},{"OBJECT_NAME":"ONEWEB-0118","OBJECT_ID":"2020-100G","EPOCH":"2026-04-16T10:15:44.392032","MEAN_MOTION":13.12440421,"ECCENTRICITY":0.000155,"INCLINATION":87.9014,"RA_OF_ASC_NODE":2.9203,"ARG_OF_PERICENTER":78.4111,"MEAN_ANOMALY":281.7191,"EPHEMERIS_TYPE":0,"CLASSIFICATION_TYPE":"U","NORAD_CAT_ID":47264,"ELEMENT_SET_NO":999,"REV_AT_EPOCH":25662,"BSTAR":-0.0014834,"MEAN_MOTION_DOT":-5.21e-06,"MEAN_MOTION_DDOT":0.0},{"OBJECT_NAME":"ONEWEB-0119","OBJECT_ID":"2020-100H","EPOCH":"2026-04-16T14:31:54.252192","MEAN_MOTION":13.12442454,"ECCENTRICITY":0.0001816,"INCLINATION":87.8992,"RA_OF_ASC_NODE":2.9078,"ARG_OF_PERICENTER":78.0183,"MEAN_ANOMALY":282.1149,"EPHEMERIS_TYPE":0,"CLASSIFICATION_TYPE":"U","NORAD_CAT_ID":47265,"ELEMENT_SET_NO":999,"REV_AT_EPOCH":25662,"BSTAR":2.4391e-05,"MEAN_MOTION_DOT":2.1e-07,"MEAN_MOTION_DDOT":0.0}]